$$SOE
2461309.500000000, A.D. 2026-Sep-26 00:00:00.0000, -4.701357702984468E+08, 1.590030343016478E+08, -3.432153431749202E+07,
2461316.500000000, A.D. 2026-Oct-03 00:00:00.0000, -4.722743585141454E+08, 1.495013403039072E+08, -3.444876376742393E+07,
2461323.500000000, A.D. 2026-Oct-10 00:00:00.0000, -4.742257099040308E+08, 1.399405488682674E+08, -3.456231397758561E+07,
2461330.500000000, A.D. 2026-Oct-17 00:00:00.0000, -4.759880035210255E+08, 1.303241336663396E+08, -3.466206410995122E+07,
2461337.500000000, A.D. 2026-Oct-24 00:00:00.0000, -4.775594695433085E+08, 1.206556286062851E+08, -3.474789722920597E+07,
2461344.500000000, A.D. 2026-Oct-31 00:00:00.0000, -4.789383911860545E+08, 1.109386275722300E+08, -3.481970046613612E+07,
2461351.500000000, A.D. 2026-Nov-07 00:00:00.0000, -4.801231062328811E+08, 1.011767840218909E+08, -3.487736523113246E+07,
2461358.500000000, A.D. 2026-Nov-14 00:00:00.0000, -4.811120079852423E+08, 9.137381132646810E+07, -3.492078742339239E+07,
2461365.500000000, A.D. 2026-Nov-21 00:00:00.0000, -4.819035474408517E+08, 8.153348453090537E+07, -3.494986741364757E+07,
2461372.500000000, A.D. 2026-Nov-28 00:00:00.0000, -4.824962376995916E+08, 7.165964052297726E+07, -3.496450995463013E+07,
2461379.500000000, A.D. 2026-Dec-05 00:00:00.0000, -4.828886569769868E+08, 6.175617595243839E+07, -3.496462440463511E+07,
2461386.500000000, A.D. 2026-Dec-12 00:00:00.0000, -4.830794500576458E+08, 5.182704600801652E+07, -3.495012502434745E+07,
2461393.500000000, A.D. 2026-Dec-19 00:00:00.0000, -4.830673300739339E+08, 4.187626405405276E+07, -3.492093117282943E+07,
2461400.500000000, A.D. 2026-Dec-26 00:00:00.0000, -4.828510807518520E+08, 3.190790125454513E+07, -3.487696746046863E+07,
2461407.500000000, A.D. 2027-Jan-02 00:00:00.0000, -4.824295588478439E+08, 2.192608599026086E+07, -3.481816389971276E+07,
2461414.500000000, A.D. 2027-Jan-09 00:00:00.0000, -4.818016966586344E+08, 1.193500308580839E+07, -3.474445606247261E+07,
2461421.500000000, A.D. 2027-Jan-16 00:00:00.0000, -4.809665045675452E+08, 1.938892852195967E+06, -3.465578524644953E+07,
2461428.500000000, A.D. 2027-Jan-23 00:00:00.0000, -4.799230735796915E+08, -8.057950098001042E+06, -3.455209865749834E+07,
2461435.500000000, A.D. 2027-Jan-30 00:00:00.0000, -4.786705776560082E+08, -1.805117831406084E+07, -3.443334962869232E+07,
2461442.500000000, A.D. 2027-Feb-06 00:00:00.0000, -4.772082754183596E+08, -2.803639291308787E+07, -3.429949788674358E+07,
2461449.500000000, A.D. 2027-Feb-13 00:00:00.0000, -4.755355116828507E+08, -3.800914371375936E+07, -3.415050972348177E+07,
2461456.500000000, A.D. 2027-Feb-20 00:00:00.0000, -4.736517211831222E+08, -4.796492889452282E+07, -3.398635792025530E+07,
2461463.500000000, A.D. 2027-Feb-27 00:00:00.0000, -4.715564330875292E+08, -5.789919739486051E+07, -3.380702181642628E+07,
2461470.500000000, A.D. 2027-Mar-06 00:00:00.0000, -4.692492732910462E+08, -6.780735213972077E+07, -3.361248764194979E+07,
2461477.500000000, A.D. 2027-Mar-13 00:00:00.0000, -4.667299660779669E+08, -7.768475203972764E+07, -3.340274879955258E+07,
2461484.500000000, A.D. 2027-Mar-20 00:00:00.0000, -4.639983362797338E+08, -8.752671360480496E+07, -3.317780606089498E+07,
2461491.500000000, A.D. 2027-Mar-27 00:00:00.0000, -4.610543117211424E+08, -9.732851272320782E+07, -3.293766773995624E+07,
2461498.500000000, A.D. 2027-Apr-03 00:00:00.0000, -4.578979257467352E+08, -1.070853866562265E+08, -3.268234986584191E+07,
2461505.500000000, A.D. 2027-Apr-10 00:00:00.0000, -4.545293197598794E+08, -1.167925362279393E+08, -3.241187635822616E+07,
2461512.500000000, A.D. 2027-Apr-17 00:00:00.0000, -4.509487457456195E+08, -1.264451282270298E+08, -3.212627920803469E+07,
2461519.500000000, A.D. 2027-Apr-24 00:00:00.0000, -4.471565686911935E+08, -1.360382980857352E+08, -3.182559867515660E+07,
2461526.500000000, A.D. 2027-May-01 00:00:00.0000, -4.431532685978228E+08, -1.455671528109139E+08, -3.150988352788430E+07,
2461533.500000000, A.D. 2027-May-08 00:00:00.0000, -4.389394417695485E+08, -1.550267734212284E+08, -3.117919129060855E+07,
2461540.500000000, A.D. 2027-May-15 00:00:00.0000, -4.345158028687712E+08, -1.644122159390454E+08, -3.083358828405064E+07,
2461547.500000000, A.D. 2027-May-22 00:00:00.0000, -4.298831892954371E+08, -1.737185135308469E+08, -3.047314952604233E+07,
2461554.500000000, A.D. 2027-May-29 00:00:00.0000, -4.250425645282281E+08, -1.829406812660167E+08, -3.009795892035870E+07,
2461561.500000000, A.D. 2027-Jun-05 00:00:00.0000, -4.199950195361417E+08, -1.920737203619457E+08, -2.970810955815294E+07,
2461568.500000000, A.D. 2027-Jun-12 00:00:00.0000, -4.147417742589247E+08, -2.011126214826469E+08, -2.930370391158566E+07,
2461575.500000000, A.D. 2027-Jun-19 00:00:00.0000, -4.092841794778118E+08, -2.100523680256013E+08, -2.888485396481954E+07,
2461582.500000000, A.D. 2027-Jun-26 00:00:00.0000, -4.036237187883890E+08, -2.188879396580803E+08, -2.845168132866840E+07,
2461589.500000000, A.D. 2027-Jul-03 00:00:00.0000, -3.977620105351440E+08, -2.276143160938560E+08, -2.800431734961575E+07,
2461596.500000000, A.D. 2027-Jul-10 00:00:00.0000, -3.917008096622663E+08, -2.362264810998629E+08, -2.754290321500960E+07,
2461603.500000000, A.D. 2027-Jul-17 00:00:00.0000, -3.854420094352985E+08, -2.447194267693402E+08, -2.706759005999960E+07,
2461610.500000000, A.D. 2027-Jul-24 00:00:00.0000, -3.789876428679405E+08, -2.530881581214409E+08, -2.657853909475583E+07,
2461617.500000000, A.D. 2027-Jul-31 00:00:00.0000, -3.723398834332178E+08, -2.613276977883869E+08, -2.607592176953165E+07,
2461624.500000000, A.D. 2027-Aug-07 00:00:00.0000, -3.655010452500993E+08, -2.694330896342501E+08, -2.555991986413394E+07,
2461631.500000000, A.D. 2027-Aug-14 00:00:00.0000, -3.584735850365553E+08, -2.773994015540119E+08, -2.503072531065331E+07,
2461638.500000000, A.D. 2027-Aug-21 00:00:00.0000, -3.512601052013804E+08, -2.852217308128980E+08, -2.448854008059232E+07,
2461645.500000000, A.D. 2027-Aug-28 00:00:00.0000, -3.438633546359239E+08, -2.928952107182276E+08, -2.393357635238196E+07,
2461652.500000000, A.D. 2027-Sep-04 00:00:00.0000, -3.362862283789508E+08, -3.004150161148695E+08, -2.336605664593275E+07,
2461659.500000000, A.D. 2027-Sep-11 00:00:00.0000, -3.285317675410137E+08, -3.077763683576713E+08, -2.278621384972565E+07,
2461666.500000000, A.D. 2027-Sep-18 00:00:00.0000, -3.206031593461345E+08, -3.149745404028124E+08, -2.219429120540050E+07,
2461673.500000000, A.D. 2027-Sep-25 00:00:00.0000, -3.125037370537694E+08, -3.220048620871050E+08, -2.159054227693123E+07,
2461680.500000000, A.D. 2027-Oct-02 00:00:00.0000, -3.042369796786700E+08, -3.288627255578219E+08, -2.097523090871772E+07,
2461687.500000000, A.D. 2027-Oct-09 00:00:00.0000, -2.958065114787423E+08, -3.355435908459301E+08, -2.034863117452264E+07,
2461694.500000000, A.D. 2027-Oct-16 00:00:00.0000, -2.872161011394370E+08, -3.420429916249100E+08, -1.971102732693844E+07,
2461701.500000000, A.D. 2027-Oct-23 00:00:00.0000, -2.784696603860923E+08, -3.483565411484072E+08, -1.906271377123055E+07,
2461708.500000000, A.D. 2027-Oct-30 00:00:00.0000, -2.695712416417018E+08, -3.544799377448389E+08, -1.840399504786567E+07,
2461715.500000000, A.D. 2027-Nov-06 00:00:00.0000, -2.605250358874474E+08, -3.604089687294322E+08, -1.773518562483455E+07,
2461722.500000000, A.D. 2027-Nov-13 00:00:00.0000, -2.513353727067880E+08, -3.661395147980161E+08, -1.705660948745421E+07,
2461729.500000000, A.D. 2027-Nov-20 00:00:00.0000, -2.420067196083880E+08, -3.716675570765849E+08, -1.636859997053781E+07,
2461736.500000000, A.D. 2027-Nov-27 00:00:00.0000, -2.325436790091744E+08, -3.769891838492620E+08, -1.567149973888412E+07,
2461743.500000000, A.D. 2027-Dec-04 00:00:00.0000, -2.229509848999802E+08, -3.821005960355688E+08, -1.496566065542355E+07,
2461750.500000000, A.D. 2027-Dec-11 00:00:00.0000, -2.132334997427885E+08, -3.869981123645324E+08, -1.425144356491604E+07,
2461757.500000000, A.D. 2027-Dec-18 00:00:00.0000, -2.033962113231412E+08, -3.916781745681775E+08, -1.352921804590195E+07,
2461764.500000000, A.D. 2027-Dec-25 00:00:00.0000, -1.934442294049878E+08, -3.961373525805382E+08, -1.279936214500615E+07,
2461771.500000000, A.D. 2028-Jan-01 00:00:00.0000, -1.833827821472242E+08, -4.003723497122151E+08, -1.206226209631175E+07,
$$EOE